[{"OBJECT_NAME":"STARLINK-5817","OBJECT_ID":"2023-028AQ","EPOCH":"2026-03-09T16:57:33.682176","MEAN_MOTION":14.9832852,"ECCENTRICITY":0.00032219,"INCLINATION":70.0001,"RA_OF_ASC_NODE":204.2112,"ARG_OF_PERICENTER":266.7202,"MEAN_ANOMALY":93.3589,"EPHEMERIS_TYPE":0,"CLASSIFICATION_TYPE":"U","NORAD_CAT_ID":55779,"ELEMENT_SET_NO":999,"REV_AT_EPOCH":16703,"BSTAR":0.00010024754,"MEAN_MOTION_DOT":1.103e-5,"MEAN_MOTION_DDOT":0},{"OBJECT_NAME":"ICEYE-X33","OBJECT_ID":"2024-149CJ","EPOCH":"2026-03-09T17:04:13.303776","MEAN_MOTION":15.0113344,"ECCENTRICITY":0.00060627,"INCLINATION":97.7033,"RA_OF_ASC_NODE":148.5516,"ARG_OF_PERICENTER":122.8099,"MEAN_ANOMALY":237.371,"EPHEMERIS_TYPE":0,"CLASSIFICATION_TYPE":"U","NORAD_CAT_ID":60548,"ELEMENT_SET_NO":999,"REV_AT_EPOCH":8528,"BSTAR":0.00045891369,"MEAN_MOTION_DOT":5.822e-5,"MEAN_MOTION_DDOT":0}]
